[{"OBJECT_NAME":"ONEWEB-0044","OBJECT_ID":"2020-008V","EPOCH":"2026-04-20T06:38:35.088864","MEAN_MOTION":13.10372324,"ECCENTRICITY":0.0002031,"INCLINATION":87.8847,"RA_OF_ASC_NODE":47.7848,"ARG_OF_PERICENTER":83.5711,"MEAN_ANOMALY":276.5647,"EPHEMERIS_TYPE":0,"CLASSIFICATION_TYPE":"U","NORAD_CAT_ID":45150,"ELEMENT_SET_NO":999,"REV_AT_EPOCH":30089,"BSTAR":0.0018861000000000001,"MEAN_MOTION_DOT":6.71e-06,"MEAN_MOTION_DDOT":0.0},{"OBJECT_NAME":"ONEWEB-0045","OBJECT_ID":"2020-008W","EPOCH":"2026-04-20T06:06:21.007584","MEAN_MOTION":13.1141521,"ECCENTRICITY":0.0001915,"INCLINATION":87.8928,"RA_OF_ASC_NODE":32.5716,"ARG_OF_PERICENTER":81.0156,"MEAN_ANOMALY":279.1189,"EPHEMERIS_TYPE":0,"CLASSIFICATION_TYPE":"U","NORAD_CAT_ID":45151,"ELEMENT_SET_NO":999,"REV_AT_EPOCH":30281,"BSTAR":-0.00040761,"MEAN_MOTION_DOT":-1.32e-06,"MEAN_MOTION_DDOT":0.0},{"OBJECT_NAME":"ONEWEB-0047","OBJECT_ID":"2020-008X","EPOCH":"2026-04-20T06:29:00.376800","MEAN_MOTION":13.10373158,"ECCENTRICITY":0.0002043,"INCLINATION":87.8849,"RA_OF_ASC_NODE":47.7865,"ARG_OF_PERICENTER":74.8803,"MEAN_ANOMALY":285.2551,"EPHEMERIS_TYPE":0,"CLASSIFICATION_TYPE":"U","NORAD_CAT_ID":45152,"ELEMENT_SET_NO":999,"REV_AT_EPOCH":30061,"BSTAR":0.0018639,"MEAN_MOTION_DOT":6.63e-06,"MEAN_MOTION_DDOT":0.0},{"OBJECT_NAME":"ONEWEB-0048","OBJECT_ID":"2020-008Y","EPOCH":"2026-04-20T06:21:49.786848","MEAN_MOTION":13.10376128,"ECCENTRICITY":0.0001954,"INCLINATION":87.8843,"RA_OF_ASC_NODE":47.8125,"ARG_OF_PERICENTER":77.1237,"MEAN_ANOMALY":283.0108,"EPHEMERIS_TYPE":0,"CLASSIFICATION_TYPE":"U","NORAD_CAT_ID":45153,"ELEMENT_SET_NO":999,"REV_AT_EPOCH":30022,"BSTAR":0.0014704000000000002,"MEAN_MOTION_DOT":5.26e-06,"MEAN_MOTION_DDOT":0.0},{"OBJECT_NAME":"ONEWEB-0049","OBJECT_ID":"2020-008Z","EPOCH":"2026-04-20T06:26:25.278432","MEAN_MOTION":13.10374335,"ECCENTRICITY":0.0001573,"INCLINATION":87.8844,"RA_OF_ASC_NODE":47.8002,"ARG_OF_PERICENTER":87.2648,"MEAN_ANOMALY":272.866,"EPHEMERIS_TYPE":0,"CLASSIFICATION_TYPE":"U","NORAD_CAT_ID":45154,"ELEMENT_SET_NO":999,"REV_AT_EPOCH":30044,"BSTAR":0.0018378000000000001,"MEAN_MOTION_DOT":6.54e-06,"MEAN_MOTION_DDOT":0.0},{"OBJECT_NAME":"ONEWEB-0051","OBJECT_ID":"2020-008AA","EPOCH":"2026-04-20T06:03:52.730496","MEAN_MOTION":13.1141814,"ECCENTRICITY":0.000221,"INCLINATION":87.8932,"RA_OF_ASC_NODE":32.5839,"ARG_OF_PERICENTER":76.8772,"MEAN_ANOMALY":283.2603,"EPHEMERIS_TYPE":0,"CLASSIFICATION_TYPE":"U","NORAD_CAT_ID":45155,"ELEMENT_SET_NO":999,"REV_AT_EPOCH":30349,"BSTAR":-0.00025967000000000004,"MEAN_MOTION_DOT":-7.9e-07,"MEAN_MOTION_DDOT":0.0},{"OBJECT_NAME":"ONEWEB-0052","OBJECT_ID":"2020-008AB","EPOCH":"2026-04-20T06:56:29.536800","MEAN_MOTION":13.10368995,"ECCENTRICITY":0.000161,"INCLINATION":87.8879,"RA_OF_ASC_NODE":47.782,"ARG_OF_PERICENTER":92.4728,"MEAN_ANOMALY":267.6583,"EPHEMERIS_TYPE":0,"CLASSIFICATION_TYPE":"U","NORAD_CAT_ID":45156,"ELEMENT_SET_NO":999,"REV_AT_EPOCH":30035,"BSTAR":0.00027137,"MEAN_MOTION_DOT":1.07e-06,"MEAN_MOTION_DDOT":0.0},{"OBJECT_NAME":"ONEWEB-0053","OBJECT_ID":"2020-008AC","EPOCH":"2026-04-20T05:53:07.471104","MEAN_MOTION":13.10375911,"ECCENTRICITY":0.000192,"INCLINATION":87.8854,"RA_OF_ASC_NODE":47.8137,"ARG_OF_PERICENTER":94.6125,"MEAN_ANOMALY":265.5222,"EPHEMERIS_TYPE":0,"CLASSIFICATION_TYPE":"U","NORAD_CAT_ID":45157,"ELEMENT_SET_NO":999,"REV_AT_EPOCH":30032,"BSTAR":-0.00081371,"MEAN_MOTION_DOT":-2.71e-06,"MEAN_MOTION_DDOT":0.0},{"OBJECT_NAME":"ONEWEB-0054","OBJECT_ID":"2020-008AD","EPOCH":"2026-04-20T04:53:23.182656","MEAN_MOTION":13.10369513,"ECCENTRICITY":0.0001824,"INCLINATION":87.8846,"RA_OF_ASC_NODE":47.7997,"ARG_OF_PERICENTER":78.9748,"MEAN_ANOMALY":281.1585,"EPHEMERIS_TYPE":0,"CLASSIFICATION_TYPE":"U","NORAD_CAT_ID":45158,"ELEMENT_SET_NO":999,"REV_AT_EPOCH":30043,"BSTAR":0.0015812,"MEAN_MOTION_DOT":5.65e-06,"MEAN_MOTION_DDOT":0.0},{"OBJECT_NAME":"ONEWEB-0056","OBJECT_ID":"2020-008AE","EPOCH":"2026-04-20T06:15:51.339168","MEAN_MOTION":13.10375551,"ECCENTRICITY":0.0001729,"INCLINATION":87.8849,"RA_OF_ASC_NODE":47.7875,"ARG_OF_PERICENTER":78.5486,"MEAN_ANOMALY":281.5836,"EPHEMERIS_TYPE":0,"CLASSIFICATION_TYPE":"U","NORAD_CAT_ID":45159,"ELEMENT_SET_NO":999,"REV_AT_EPOCH":30059,"BSTAR":0.0009578,"MEAN_MOTION_DOT":3.47e-06,"MEAN_MOTION_DDOT":0.0},{"OBJECT_NAME":"ONEWEB-0057","OBJECT_ID":"2020-008AF","EPOCH":"2026-04-20T06:26:49.216416","MEAN_MOTION":13.10373877,"ECCENTRICITY":0.0001878,"INCLINATION":87.8847,"RA_OF_ASC_NODE":47.795,"ARG_OF_PERICENTER":95.3631,"MEAN_ANOMALY":264.771,"EPHEMERIS_TYPE":0,"CLASSIFICATION_TYPE":"U","NORAD_CAT_ID":45160,"ELEMENT_SET_NO":999,"REV_AT_EPOCH":30076,"BSTAR":0.0020234,"MEAN_MOTION_DOT":7.19e-06,"MEAN_MOTION_DDOT":0.0},{"OBJECT_NAME":"ONEWEB-0058","OBJECT_ID":"2020-008AG","EPOCH":"2026-04-20T06:07:40.713312","MEAN_MOTION":13.10375902,"ECCENTRICITY":0.000215,"INCLINATION":87.8852,"RA_OF_ASC_NODE":47.806,"ARG_OF_PERICENTER":75.4987,"MEAN_ANOMALY":284.6379,"EPHEMERIS_TYPE":0,"CLASSIFICATION_TYPE":"U","NORAD_CAT_ID":45161,"ELEMENT_SET_NO":999,"REV_AT_EPOCH":30083,"BSTAR":0.00022999,"MEAN_MOTION_DOT":9.3e-07,"MEAN_MOTION_DDOT":0.0},{"OBJECT_NAME":"ONEWEB-0059","OBJECT_ID":"2020-008AH","EPOCH":"2026-04-20T06:02:41.662176","MEAN_MOTION":13.10375311,"ECCENTRICITY":0.0002084,"INCLINATION":87.8845,"RA_OF_ASC_NODE":47.8067,"ARG_OF_PERICENTER":82.0044,"MEAN_ANOMALY":278.132,"EPHEMERIS_TYPE":0,"CLASSIFICATION_TYPE":"U","NORAD_CAT_ID":45162,"ELEMENT_SET_NO":999,"REV_AT_EPOCH":30073,"BSTAR":-0.00044482,"MEAN_MOTION_DOT":-1.43e-06,"MEAN_MOTION_DDOT":0.0},{"OBJECT_NAME":"ONEWEB-0062","OBJECT_ID":"2020-008AJ","EPOCH":"2026-04-20T06:39:46.051776","MEAN_MOTION":13.1037279,"ECCENTRICITY":0.0002159,"INCLINATION":87.8846,"RA_OF_ASC_NODE":47.7859,"ARG_OF_PERICENTER":69.2016,"MEAN_ANOMALY":290.9342,"EPHEMERIS_TYPE":0,"CLASSIFICATION_TYPE":"U","NORAD_CAT_ID":45163,"ELEMENT_SET_NO":999,"REV_AT_EPOCH":30060,"BSTAR":0.0021065999999999997,"MEAN_MOTION_DOT":7.48e-06,"MEAN_MOTION_DDOT":0.0},{"OBJECT_NAME":"ONEWEB-0065","OBJECT_ID":"2020-008AK","EPOCH":"2026-04-19T13:04:11.788032","MEAN_MOTION":13.10371793,"ECCENTRICITY":0.0001586,"INCLINATION":87.886,"RA_OF_ASC_NODE":47.9384,"ARG_OF_PERICENTER":87.3646,"MEAN_ANOMALY":272.7663,"EPHEMERIS_TYPE":0,"CLASSIFICATION_TYPE":"U","NORAD_CAT_ID":45164,"ELEMENT_SET_NO":999,"REV_AT_EPOCH":30020,"BSTAR":-0.0019868,"MEAN_MOTION_DOT":-6.81e-06,"MEAN_MOTION_DDOT":0.0},{"OBJECT_NAME":"ONEWEB-0066","OBJECT_ID":"2020-020A","EPOCH":"2026-04-20T00:12:20.311488","MEAN_MOTION":13.11415612,"ECCENTRICITY":0.0001992,"INCLINATION":87.8931,"RA_OF_ASC_NODE":32.6351,"ARG_OF_PERICENTER":80.2852,"MEAN_ANOMALY":279.8501,"EPHEMERIS_TYPE":0,"CLASSIFICATION_TYPE":"U","NORAD_CAT_ID":45424,"ELEMENT_SET_NO":999,"REV_AT_EPOCH":29505,"BSTAR":0.0015220000000000001,"MEAN_MOTION_DOT":5.52e-06,"MEAN_MOTION_DDOT":0.0},{"OBJECT_NAME":"ONEWEB-0067","OBJECT_ID":"2020-020B","EPOCH":"2026-04-20T04:46:57.462816","MEAN_MOTION":13.11421326,"ECCENTRICITY":0.0001795,"INCLINATION":87.8942,"RA_OF_ASC_NODE":32.51,"ARG_OF_PERICENTER":87.2063,"MEAN_ANOMALY":272.9271,"EPHEMERIS_TYPE":0,"CLASSIFICATION_TYPE":"U","NORAD_CAT_ID":45425,"ELEMENT_SET_NO":999,"REV_AT_EPOCH":29513,"BSTAR":-0.0013363000000000001,"MEAN_MOTION_DOT":-4.61e-06,"MEAN_MOTION_DDOT":0.0},{"OBJECT_NAME":"ONEWEB-0080","OBJECT_ID":"2020-020C","EPOCH":"2026-04-20T04:45:58.261536","MEAN_MOTION":13.1141646,"ECCENTRICITY":0.0002049,"INCLINATION":87.8934,"RA_OF_ASC_NODE":32.5897,"ARG_OF_PERICENTER":70.0447,"MEAN_ANOMALY":290.0901,"EPHEMERIS_TYPE":0,"CLASSIFICATION_TYPE":"U","NORAD_CAT_ID":45426,"ELEMENT_SET_NO":999,"REV_AT_EPOCH":29510,"BSTAR":-0.0012219,"MEAN_MOTION_DOT":-4.2e-06,"MEAN_MOTION_DDOT":0.0},{"OBJECT_NAME":"ONEWEB-0090","OBJECT_ID":"2020-020D","EPOCH":"2026-04-20T05:27:29.176128","MEAN_MOTION":13.11419149,"ECCENTRICITY":0.0001895,"INCLINATION":87.893,"RA_OF_ASC_NODE":32.5893,"ARG_OF_PERICENTER":76.8741,"MEAN_ANOMALY":283.2598,"EPHEMERIS_TYPE":0,"CLASSIFICATION_TYPE":"U","NORAD_CAT_ID":45427,"ELEMENT_SET_NO":999,"REV_AT_EPOCH":29507,"BSTAR":0.0020039000000000003,"MEAN_MOTION_DOT":7.23e-06,"MEAN_MOTION_DDOT":0.0},{"OBJECT_NAME":"ONEWEB-0061","OBJECT_ID":"2020-020E","EPOCH":"2026-04-20T04:23:36.219840","MEAN_MOTION":13.11414788,"ECCENTRICITY":0.00019,"INCLINATION":87.8929,"RA_OF_ASC_NODE":32.5837,"ARG_OF_PERICENTER":78.0818,"MEAN_ANOMALY":282.0523,"EPHEMERIS_TYPE":0,"CLASSIFICATION_TYPE":"U","NORAD_CAT_ID":45428,"ELEMENT_SET_NO":999,"REV_AT_EPOCH":29502,"BSTAR":-0.00076334,"MEAN_MOTION_DOT":-2.58e-06,"MEAN_MOTION_DDOT":0.0},{"OBJECT_NAME":"ONEWEB-0081","OBJECT_ID":"2020-020F","EPOCH":"2026-04-20T05:46:48.664992","MEAN_MOTION":13.11418188,"ECCENTRICITY":0.000193,"INCLINATION":87.8915,"RA_OF_ASC_NODE":32.5858,"ARG_OF_PERICENTER":84.1861,"MEAN_ANOMALY":275.9487,"EPHEMERIS_TYPE":0,"CLASSIFICATION_TYPE":"U","NORAD_CAT_ID":45429,"ELEMENT_SET_NO":999,"REV_AT_EPOCH":29514,"BSTAR":0.001473,"MEAN_MOTION_DOT":5.35e-06,"MEAN_MOTION_DDOT":0.0},{"OBJECT_NAME":"ONEWEB-0069","OBJECT_ID":"2020-020G","EPOCH":"2026-04-20T05:30:57.436416","MEAN_MOTION":13.11418444,"ECCENTRICITY":0.0001904,"INCLINATION":87.8925,"RA_OF_ASC_NODE":32.5833,"ARG_OF_PERICENTER":81.4278,"MEAN_ANOMALY":278.7065,"EPHEMERIS_TYPE":0,"CLASSIFICATION_TYPE":"U","NORAD_CAT_ID":45430,"ELEMENT_SET_NO":999,"REV_AT_EPOCH":29507,"BSTAR":0.0019903,"MEAN_MOTION_DOT":7.18e-06,"MEAN_MOTION_DDOT":0.0},{"OBJECT_NAME":"ONEWEB-0031","OBJECT_ID":"2020-020H","EPOCH":"2026-04-20T04:50:38.799744","MEAN_MOTION":13.11417747,"ECCENTRICITY":0.0001911,"INCLINATION":87.8922,"RA_OF_ASC_NODE":32.6043,"ARG_OF_PERICENTER":72.594,"MEAN_ANOMALY":287.5397,"EPHEMERIS_TYPE":0,"CLASSIFICATION_TYPE":"U","NORAD_CAT_ID":45431,"ELEMENT_SET_NO":999,"REV_AT_EPOCH":29505,"BSTAR":-0.0010779,"MEAN_MOTION_DOT":-3.69e-06,"MEAN_MOTION_DDOT":0.0}]